NUSAT-47                
1 66743U 25276CF  26200.14874176  .00003012  00000+0  14053-3 0  9997
2 66743  97.4174 273.2524 0000935 182.5253 177.5978 15.20608640 35282
NUSAT-53 (JANE GOODALL) 
1 68432U 26067S   26200.15455303  .00002952  00000+0  14487-3 0  9994
2 68432  97.4577 158.2224 0000280 299.9303  60.1904 15.18872811 16798
NUSAT-54 (BRANCA MARQU*)
1 68442U 26067AC  26199.81880853  .00002727  00000+0  13741-3 0  9999
2 68442  97.4560 157.7287 0003409 346.4001  13.7140 15.18016047 16734
