{"fetched_at":"2026-07-19T17:31:46.238Z","source":"https://celestrak.org/NORAD/elements/gp.php?NAME=NUSAT&FORMAT=JSON","constellation":"satellogic","records":[{"OBJECT_NAME":"NUSAT-47","OBJECT_ID":"2025-276CF","EPOCH":"2026-07-19T03:34:11.288064","CLASSIFICATION_TYPE":"U","MEAN_MOTION":15.2060864,"ECCENTRICITY":0.00009351,"INCLINATION":97.4174,"RA_OF_ASC_NODE":273.2524,"ARG_OF_PERICENTER":182.5253,"MEAN_ANOMALY":177.5978,"EPHEMERIS_TYPE":0,"NORAD_CAT_ID":66743,"ELEMENT_SET_NO":999,"REV_AT_EPOCH":3528,"BSTAR":0.00014053239,"MEAN_MOTION_DOT":0.00003012,"MEAN_MOTION_DDOT":0},{"OBJECT_NAME":"NUSAT-53 (JANE GOODALL)","OBJECT_ID":"2026-067S","EPOCH":"2026-07-19T03:42:33.381792","CLASSIFICATION_TYPE":"U","MEAN_MOTION":15.18872811,"ECCENTRICITY":0.00002806,"INCLINATION":97.4577,"RA_OF_ASC_NODE":158.2224,"ARG_OF_PERICENTER":299.9303,"MEAN_ANOMALY":60.1904,"EPHEMERIS_TYPE":0,"NORAD_CAT_ID":68432,"ELEMENT_SET_NO":999,"REV_AT_EPOCH":1679,"BSTAR":0.00014487033,"MEAN_MOTION_DOT":0.00002952,"MEAN_MOTION_DDOT":0},{"OBJECT_NAME":"NUSAT-54 (BRANCA MARQUES)","OBJECT_ID":"2026-067AC","EPOCH":"2026-07-18T19:39:05.056992","CLASSIFICATION_TYPE":"U","MEAN_MOTION":15.18016047,"ECCENTRICITY":0.00034094,"INCLINATION":97.456,"RA_OF_ASC_NODE":157.7287,"ARG_OF_PERICENTER":346.4001,"MEAN_ANOMALY":13.714,"EPHEMERIS_TYPE":0,"NORAD_CAT_ID":68442,"ELEMENT_SET_NO":999,"REV_AT_EPOCH":1673,"BSTAR":0.00013740506,"MEAN_MOTION_DOT":0.00002727,"MEAN_MOTION_DDOT":0}]}
